IRIDIUM 112             
1 41925U 17003J   24187.91326637  .00000413  00000+0  14058-3 0  9999
2 41925  86.3962  25.5390 0001826  90.7640 269.3765 14.34218825391328
IRIDIUM 111             
1 41926U 17003K   24188.04011823  .00000102  00000+0  29221-4 0  9997
2 41926  86.3963  25.5407 0002060  98.6990 261.4439 14.34218132391394
IRIDIUM 113             
1 42803U 17039A   24187.81077752  .00000151  00000+0  46776-4 0  9996
2 42803  86.3965 259.4003 0002207  99.9166 260.2279 14.34218269369220
IRIDIUM 123             
1 42804U 17039B   24188.54994150  .00000361  00000+0  12168-3 0  9998
2 42804  86.3969 290.6000 0002221  98.0292 262.1156 14.34218960368092
IRIDIUM 120             
1 42805U 17039C   24187.73466638  .00000231  00000+0  75449-4 0  9992
2 42805  86.3952 259.3066 0002327  93.5294 266.6168 14.34218713369200
IRIDIUM 115             
1 42806U 17039D   24188.47747193  .00000414  00000+0  11696-3 0  9999
2 42806  86.4490 259.0237 0002307 103.9070 256.2388 14.43271330371758
IRIDIUM 118             
1 42807U 17039E   24187.81420051  .00000373  00000+0  12629-3 0  9999
2 42807  86.3968 290.9087 0002090  92.8449 267.2986 14.34218889367986
IRIDIUM 117             
1 42808U 17039F   24188.53091407  .00000224  00000+0  72772-4 0  9990
2 42808  86.3968 290.5734 0002330 100.1774 259.9685 14.34218522368128
